[{"OBJECT_NAME":"SIRION PATHFINDER-2","OBJECT_ID":"2018-099B","EPOCH":"2026-03-29T02:05:29.868000","MEAN_MOTION":15.137664,"ECCENTRICITY":0.0008177,"INCLINATION":97.4354,"RA_OF_ASC_NODE":139.0555,"ARG_OF_PERICENTER":207.821,"MEAN_ANOMALY":152.2585,"EPHEMERIS_TYPE":0,"CLASSIFICATION_TYPE":"U","NORAD_CAT_ID":43759,"ELEMENT_SET_NO":999,"REV_AT_EPOCH":40050,"BSTAR":0.00038636,"MEAN_MOTION_DOT":6.91e-5,"MEAN_MOTION_DDOT":0},{"OBJECT_NAME":"AISTECHSAT 2","OBJECT_ID":"2018-099L","EPOCH":"2026-03-29T02:32:16.774080","MEAN_MOTION":15.14585122,"ECCENTRICITY":0.0004212,"INCLINATION":97.4397,"RA_OF_ASC_NODE":137.9034,"ARG_OF_PERICENTER":196.731,"MEAN_ANOMALY":163.3784,"EPHEMERIS_TYPE":0,"CLASSIFICATION_TYPE":"U","NORAD_CAT_ID":43768,"ELEMENT_SET_NO":999,"REV_AT_EPOCH":40015,"BSTAR":0.00035767,"MEAN_MOTION_DOT":6.538e-5,"MEAN_MOTION_DDOT":0},{"OBJECT_NAME":"FOX-1CLIFF (AO-95)","OBJECT_ID":"2018-099N","EPOCH":"2026-03-29T03:14:57.746976","MEAN_MOTION":15.24912936,"ECCENTRICITY":0.0007465,"INCLINATION":97.4473,"RA_OF_ASC_NODE":148.7517,"ARG_OF_PERICENTER":267.161,"MEAN_ANOMALY":92.8773,"EPHEMERIS_TYPE":0,"CLASSIFICATION_TYPE":"U","NORAD_CAT_ID":43770,"ELEMENT_SET_NO":999,"REV_AT_EPOCH":40101,"BSTAR":0.00056068,"MEAN_MOTION_DOT":0.00013906,"MEAN_MOTION_DDOT":0},{"OBJECT_NAME":"2018-099Q","OBJECT_ID":"2018-099Q","EPOCH":"2026-03-29T03:35:52.243008","MEAN_MOTION":15.61551487,"ECCENTRICITY":0.0002254,"INCLINATION":97.426,"RA_OF_ASC_NODE":164.4228,"ARG_OF_PERICENTER":173.9232,"MEAN_ANOMALY":186.2053,"EPHEMERIS_TYPE":0,"CLASSIFICATION_TYPE":"U","NORAD_CAT_ID":43772,"ELEMENT_SET_NO":999,"REV_AT_EPOCH":40208,"BSTAR":0.001435,"MEAN_MOTION_DOT":0.00124561,"MEAN_MOTION_DDOT":0},{"OBJECT_NAME":"RANGE-A","OBJECT_ID":"2018-099R","EPOCH":"2026-03-29T02:08:35.592576","MEAN_MOTION":15.12662954,"ECCENTRICITY":0.0008843,"INCLINATION":97.4071,"RA_OF_ASC_NODE":133.0144,"ARG_OF_PERICENTER":262.4054,"MEAN_ANOMALY":97.6173,"EPHEMERIS_TYPE":0,"CLASSIFICATION_TYPE":"U","NORAD_CAT_ID":43773,"ELEMENT_SET_NO":999,"REV_AT_EPOCH":40038,"BSTAR":0.00031817,"MEAN_MOTION_DOT":5.506e-5,"MEAN_MOTION_DDOT":0},{"OBJECT_NAME":"SNUSAT-2","OBJECT_ID":"2018-099AA","EPOCH":"2026-03-29T03:33:42.557472","MEAN_MOTION":15.20536009,"ECCENTRICITY":0.0009895,"INCLINATION":97.4161,"RA_OF_ASC_NODE":142.8006,"ARG_OF_PERICENTER":207.7278,"MEAN_ANOMALY":152.3431,"EPHEMERIS_TYPE":0,"CLASSIFICATION_TYPE":"U","NORAD_CAT_ID":43782,"ELEMENT_SET_NO":999,"REV_AT_EPOCH":40086,"BSTAR":0.00048666,"MEAN_MOTION_DOT":0.00010598,"MEAN_MOTION_DDOT":0},{"OBJECT_NAME":"SNUGLITE","OBJECT_ID":"2018-099AC","EPOCH":"2026-03-29T02:15:31.451328","MEAN_MOTION":15.25348358,"ECCENTRICITY":0.0002842,"INCLINATION":97.3971,"RA_OF_ASC_NODE":143.2324,"ARG_OF_PERICENTER":179.5072,"MEAN_ANOMALY":180.6169,"EPHEMERIS_TYPE":0,"CLASSIFICATION_TYPE":"U","NORAD_CAT_ID":43784,"ELEMENT_SET_NO":999,"REV_AT_EPOCH":40110,"BSTAR":0.00061215,"MEAN_MOTION_DOT":0.00015382,"MEAN_MOTION_DDOT":0},{"OBJECT_NAME":"ITASAT","OBJECT_ID":"2018-099AE","EPOCH":"2026-03-29T02:10:37.914240","MEAN_MOTION":15.17979919,"ECCENTRICITY":0.0011212,"INCLINATION":97.4131,"RA_OF_ASC_NODE":141.2254,"ARG_OF_PERICENTER":271.3141,"MEAN_ANOMALY":88.6809,"EPHEMERIS_TYPE":0,"CLASSIFICATION_TYPE":"U","NORAD_CAT_ID":43786,"ELEMENT_SET_NO":999,"REV_AT_EPOCH":40075,"BSTAR":0.00045057,"MEAN_MOTION_DOT":9.107e-5,"MEAN_MOTION_DDOT":0},{"OBJECT_NAME":"EAGLET-I","OBJECT_ID":"2018-099AJ","EPOCH":"2026-03-29T01:47:40.195392","MEAN_MOTION":15.12294349,"ECCENTRICITY":0.0009675,"INCLINATION":97.4334,"RA_OF_ASC_NODE":139.864,"ARG_OF_PERICENTER":260.9444,"MEAN_ANOMALY":99.0692,"EPHEMERIS_TYPE":0,"CLASSIFICATION_TYPE":"U","NORAD_CAT_ID":43790,"ELEMENT_SET_NO":999,"REV_AT_EPOCH":40022,"BSTAR":0.00031183,"MEAN_MOTION_DOT":5.34e-5,"MEAN_MOTION_DDOT":0},{"OBJECT_NAME":"ESEO","OBJECT_ID":"2018-099AL","EPOCH":"2026-03-29T01:59:32.586720","MEAN_MOTION":15.03983801,"ECCENTRICITY":0.0010494,"INCLINATION":97.4066,"RA_OF_ASC_NODE":128.8772,"ARG_OF_PERICENTER":243.5402,"MEAN_ANOMALY":116.4748,"EPHEMERIS_TYPE":0,"CLASSIFICATION_TYPE":"U","NORAD_CAT_ID":43792,"ELEMENT_SET_NO":999,"REV_AT_EPOCH":39976,"BSTAR":9.4168e-5,"MEAN_MOTION_DOT":1.243e-5,"MEAN_MOTION_DDOT":0},{"OBJECT_NAME":"THEA","OBJECT_ID":"2018-099AQ","EPOCH":"2026-03-29T03:28:26.886432","MEAN_MOTION":15.32206376,"ECCENTRICITY":0.0007683,"INCLINATION":97.4516,"RA_OF_ASC_NODE":157.2017,"ARG_OF_PERICENTER":199.0251,"MEAN_ANOMALY":161.0704,"EPHEMERIS_TYPE":0,"CLASSIFICATION_TYPE":"U","NORAD_CAT_ID":43796,"ELEMENT_SET_NO":999,"REV_AT_EPOCH":40042,"BSTAR":0.0007417,"MEAN_MOTION_DOT":0.00023048,"MEAN_MOTION_DDOT":0},{"OBJECT_NAME":"ASTROCAST 0.1","OBJECT_ID":"2018-099AS","EPOCH":"2026-03-29T04:19:34.641120","MEAN_MOTION":15.44346393,"ECCENTRICITY":0.0006609,"INCLINATION":97.443,"RA_OF_ASC_NODE":164.4856,"ARG_OF_PERICENTER":145.4152,"MEAN_ANOMALY":214.7527,"EPHEMERIS_TYPE":0,"CLASSIFICATION_TYPE":"U","NORAD_CAT_ID":43798,"ELEMENT_SET_NO":999,"REV_AT_EPOCH":40206,"BSTAR":0.0010613,"MEAN_MOTION_DOT":0.00049131,"MEAN_MOTION_DDOT":0},{"OBJECT_NAME":"JY1SAT (JO-97)","OBJECT_ID":"2018-099AX","EPOCH":"2026-03-29T04:01:20.112960","MEAN_MOTION":15.31028524,"ECCENTRICITY":0.0006247,"INCLINATION":97.4221,"RA_OF_ASC_NODE":150.8493,"ARG_OF_PERICENTER":180.6364,"MEAN_ANOMALY":179.487,"EPHEMERIS_TYPE":0,"CLASSIFICATION_TYPE":"U","NORAD_CAT_ID":43803,"ELEMENT_SET_NO":999,"REV_AT_EPOCH":40137,"BSTAR":0.00082839,"MEAN_MOTION_DOT":0.00024823,"MEAN_MOTION_DDOT":0},{"OBJECT_NAME":"SUOMI-100","OBJECT_ID":"2018-099AY","EPOCH":"2026-03-29T03:42:23.603040","MEAN_MOTION":15.26543981,"ECCENTRICITY":0.0010154,"INCLINATION":97.4283,"RA_OF_ASC_NODE":148.9233,"ARG_OF_PERICENTER":194.2776,"MEAN_ANOMALY":165.8177,"EPHEMERIS_TYPE":0,"CLASSIFICATION_TYPE":"U","NORAD_CAT_ID":43804,"ELEMENT_SET_NO":999,"REV_AT_EPOCH":40120,"BSTAR":0.00058291,"MEAN_MOTION_DOT":0.000152,"MEAN_MOTION_DDOT":0},{"OBJECT_NAME":"AL-FARABI 2","OBJECT_ID":"2018-099AZ","EPOCH":"2026-03-29T03:56:00.176352","MEAN_MOTION":15.75468836,"ECCENTRICITY":0.000386,"INCLINATION":97.4047,"RA_OF_ASC_NODE":165.1935,"ARG_OF_PERICENTER":191.356,"MEAN_ANOMALY":168.7619,"EPHEMERIS_TYPE":0,"CLASSIFICATION_TYPE":"U","NORAD_CAT_ID":43805,"ELEMENT_SET_NO":999,"REV_AT_EPOCH":40241,"BSTAR":0.0019215,"MEAN_MOTION_DOT":0.0030045,"MEAN_MOTION_DDOT":0},{"OBJECT_NAME":"CENTAURI-1","OBJECT_ID":"2018-099BD","EPOCH":"2026-03-29T03:19:58.782720","MEAN_MOTION":15.15495494,"ECCENTRICITY":0.001297,"INCLINATION":97.4325,"RA_OF_ASC_NODE":141.59,"ARG_OF_PERICENTER":242.4435,"MEAN_ANOMALY":117.548,"EPHEMERIS_TYPE":0,"CLASSIFICATION_TYPE":"U","NORAD_CAT_ID":43809,"ELEMENT_SET_NO":999,"REV_AT_EPOCH":40037,"BSTAR":0.00036516,"MEAN_MOTION_DOT":6.863e-5,"MEAN_MOTION_DDOT":0},{"OBJECT_NAME":"GLOBAL-2","OBJECT_ID":"2018-099BG","EPOCH":"2026-03-29T01:46:10.502688","MEAN_MOTION":15.08181702,"ECCENTRICITY":0.0007456,"INCLINATION":97.3654,"RA_OF_ASC_NODE":127.9083,"ARG_OF_PERICENTER":75.8397,"MEAN_ANOMALY":284.366,"EPHEMERIS_TYPE":0,"CLASSIFICATION_TYPE":"U","NORAD_CAT_ID":43812,"ELEMENT_SET_NO":999,"REV_AT_EPOCH":39983,"BSTAR":0.00023869,"MEAN_MOTION_DOT":3.632e-5,"MEAN_MOTION_DDOT":0}]
