SIRION PATHFINDER-2     
1 43759U 18099B   26088.08715125  .00006910  00000+0  38636-3 0  9992
2 43759  97.4354 139.0555 0008177 207.8210 152.2585 15.13766400400503
AISTECHSAT 2            
1 43768U 18099L   26088.10574970  .00006538  00000+0  35767-3 0  9994
2 43768  97.4397 137.9034 0004212 196.7310 163.3784 15.14585122400158
FOX-1CLIFF (AO-95)      
1 43770U 18099N   26088.13539059  .00013906  00000+0  56068-3 0  9993
2 43770  97.4473 148.7517 0007465 267.1610  92.8773 15.24912936401019
2018-099Q               
1 43772U 18099Q   26088.14991022  .00124561  00000+0  14350-2 0  9995
2 43772  97.4260 164.4228 0002254 173.9232 186.2053 15.61551487402082
RANGE-A                 
1 43773U 18099R   26088.08930084  .00005506  00000+0  31817-3 0  9995
2 43773  97.4071 133.0144 0008843 262.4054  97.6173 15.12662954400385
SNUSAT-2                
1 43782U 18099AA  26088.14840923  .00010598  00000+0  48666-3 0  9991
2 43782  97.4161 142.8006 0009895 207.7278 152.3431 15.20536009400867
SNUGLITE                
1 43784U 18099AC  26088.09411402  .00015382  00000+0  61215-3 0  9994
2 43784  97.3971 143.2324 0002842 179.5072 180.6169 15.25348358401101
ITASAT                  
1 43786U 18099AE  26088.09071660  .00009107  00000+0  45057-3 0  9998
2 43786  97.4131 141.2254 0011212 271.3141  88.6809 15.17979919400753
EAGLET-I                
1 43790U 18099AJ  26088.07477078  .00005340  00000+0  31183-3 0  9994
2 43790  97.4334 139.8640 0009675 260.9444  99.0692 15.12294349400225
ESEO                    
1 43792U 18099AL  26088.08301605  .00001243  00000+0  94168-4 0  9990
2 43792  97.4066 128.8772 0010494 243.5402 116.4748 15.03983801399765
THEA                    
1 43796U 18099AQ  26088.14475563  .00023048  00000+0  74170-3 0  9993
2 43796  97.4516 157.2017 0007683 199.0251 161.0704 15.32206376400421
ASTROCAST 0.1           
1 43798U 18099AS  26088.18026205  .00049131  00000+0  10613-2 0  9996
2 43798  97.4430 164.4856 0006609 145.4152 214.7527 15.44346393402069
JY1SAT (JO-97)          
1 43803U 18099AX  26088.16759390  .00024823  00000+0  82839-3 0  9990
2 43803  97.4221 150.8493 0006247 180.6364 179.4870 15.31028524401374
SUOMI-100               
1 43804U 18099AY  26088.15443985  .00015200  00000+0  58291-3 0  9994
2 43804  97.4283 148.9233 0010154 194.2776 165.8177 15.26543981401207
AL-FARABI 2             
1 43805U 18099AZ  26088.16389093  .00300450  00000+0  19215-2 0  9991
2 43805  97.4047 165.1935 0003860 191.3560 168.7619 15.75468836402417
CENTAURI-1              
1 43809U 18099BD  26088.13887480  .00006863  00000+0  36516-3 0  9990
2 43809  97.4325 141.5900 0012970 242.4435 117.5480 15.15495494400376
GLOBAL-2                
1 43812U 18099BG  26088.07373267  .00003632  00000+0  23869-3 0  9998
2 43812  97.3654 127.9083 0007456  75.8397 284.3660 15.08181702399839
